H-2A R/B                
1 28932U 06002B   26085.16978312  .00010355  00000+0  51291-3 0  9994
2 28932  98.2440 233.6180 0052378 184.6495 175.4257 15.16771248 96938
RESURS-DK 1             
1 29228U 06021A   26084.99971870  .00002163  00000+0  12888-3 0  9993
2 29228  69.9337 194.8323 0000905  69.4356 290.6907 15.12847572 89999
CZ-4B R/B               
1 29507U 06046C   26085.09975894  .00003753  00000+0  19060-3 0  9997
2 29507  97.5563 129.9638 0032468 208.1224 151.8257 15.17064962 62536
CZ-2C R/B               
1 31114U 07010B   26085.21124831  .00000141  00000+0  83881-4 0  9998
2 31114  98.3996 197.6633 0057953 245.6295 113.8826 14.20252014982068
COSMO-SKYMED 1          
1 31598U 07023A   26085.17876124  .00002696  00000+0  24162-3 0  9995
2 31598  97.8879 276.3453 0000984  92.3582 267.7752 14.96651579 17373
COSMOS 2428             
1 31792U 07029A   26085.17154274 -.00000028  00000+0  10477-4 0  9995
2 31792  70.9438 168.7517 0009658 260.1786  99.8245 14.12948187966427
SL-16 R/B               
1 31793U 07029B   26084.63309539  .00000153  00000+0  10405-3 0  9990
2 31793  70.9752 138.8721 0002577 277.3173 247.6505 14.14842576967627
KORONAS-FOTON           
1 33504U 09003A   26084.97156617  .00012558  00000+0  27640-3 0  9991
2 33504  82.4279 258.9421 0011804  97.0272 263.2319 15.43741967948252
CZ-2C R/B               
1 37731U 11030B   26084.89230984  .00001473  00000+0  19172-3 0  9996
2 37731  97.8571  41.8345 0051216 298.5761 124.8643 14.81277575792494
H-2A R/B                
1 38341U 12025E   26085.19092751  .00003525  00000+0  32061-3 0  9993
2 38341  98.4760  53.5624 0042713 258.3883 101.2539 14.95280433750680
SHIJIAN-16 (SJ-16)      
1 39358U 13057A   26085.18725065  .00001338  00000+0  13320-3 0  9995
2 39358  74.9722 153.8584 0015257  69.6485 290.6341 14.92411420673967
SL-4 R/B                
1 39679U 14021B   26084.79284514  .00017461  00000+0  37834-3 0  9998
2 39679  51.6053 258.6863 0095971 161.6166 198.8326 15.39717175658756
