CCSDS_OMM_VERS = 2.0
CREATION_DATE  = 
ORIGINATOR     = 

OBJECT_NAME    = H-2A R/B
OBJECT_ID      = 2006-002B
CENTER_NAME    = EARTH
REF_FRAME      = TEME
TIME_SYSTEM    = UTC
MEAN_ELEMENT_THEORY = SGP/SGP4

EPOCH          = 2026-03-26T04:04:29.261568
MEAN_MOTION    = 15.16771248
ECCENTRICITY   = .0052378
INCLINATION    = 98.2440
RA_OF_ASC_NODE = 233.6180
ARG_OF_PERICENTER = 184.6495
MEAN_ANOMALY   = 175.4257

EPHEMERIS_TYPE = 0
CLASSIFICATION_TYPE = U
NORAD_CAT_ID   = 28932
ELEMENT_SET_NO = 999
REV_AT_EPOCH   = 9693
BSTAR          = .51291E-3
MEAN_MOTION_DOT = .10355E-3
MEAN_MOTION_DDOT = 0

CCSDS_OMM_VERS = 2.0
CREATION_DATE  = 
ORIGINATOR     = 

OBJECT_NAME    = RESURS-DK 1
OBJECT_ID      = 2006-021A
CENTER_NAME    = EARTH
REF_FRAME      = TEME
TIME_SYSTEM    = UTC
MEAN_ELEMENT_THEORY = SGP/SGP4

EPOCH          = 2026-03-25T23:59:35.695680
MEAN_MOTION    = 15.12847572
ECCENTRICITY   = .0000905
INCLINATION    = 69.9337
RA_OF_ASC_NODE = 194.8323
ARG_OF_PERICENTER = 69.4356
MEAN_ANOMALY   = 290.6907

EPHEMERIS_TYPE = 0
CLASSIFICATION_TYPE = U
NORAD_CAT_ID   = 29228
ELEMENT_SET_NO = 999
REV_AT_EPOCH   = 8999
BSTAR          = .12888E-3
MEAN_MOTION_DOT = .2163E-4
MEAN_MOTION_DDOT = 0

CCSDS_OMM_VERS = 2.0
CREATION_DATE  = 
ORIGINATOR     = 

OBJECT_NAME    = CZ-4B R/B
OBJECT_ID      = 2006-046C
CENTER_NAME    = EARTH
REF_FRAME      = TEME
TIME_SYSTEM    = UTC
MEAN_ELEMENT_THEORY = SGP/SGP4

EPOCH          = 2026-03-26T02:23:39.172416
MEAN_MOTION    = 15.17064962
ECCENTRICITY   = .0032468
INCLINATION    = 97.5563
RA_OF_ASC_NODE = 129.9638
ARG_OF_PERICENTER = 208.1224
MEAN_ANOMALY   = 151.8257

EPHEMERIS_TYPE = 0
CLASSIFICATION_TYPE = U
NORAD_CAT_ID   = 29507
ELEMENT_SET_NO = 999
REV_AT_EPOCH   = 6253
BSTAR          = .1906E-3
MEAN_MOTION_DOT = .3753E-4
MEAN_MOTION_DDOT = 0

CCSDS_OMM_VERS = 2.0
CREATION_DATE  = 
ORIGINATOR     = 

OBJECT_NAME    = CZ-2C R/B
OBJECT_ID      = 2007-010B
CENTER_NAME    = EARTH
REF_FRAME      = TEME
TIME_SYSTEM    = UTC
MEAN_ELEMENT_THEORY = SGP/SGP4

EPOCH          = 2026-03-26T05:04:11.853984
MEAN_MOTION    = 14.20252014
ECCENTRICITY   = .0057953
INCLINATION    = 98.3996
RA_OF_ASC_NODE = 197.6633
ARG_OF_PERICENTER = 245.6295
MEAN_ANOMALY   = 113.8826

EPHEMERIS_TYPE = 0
CLASSIFICATION_TYPE = U
NORAD_CAT_ID   = 31114
ELEMENT_SET_NO = 999
REV_AT_EPOCH   = 98206
BSTAR          = .83881E-4
MEAN_MOTION_DOT = .141E-5
MEAN_MOTION_DDOT = 0

CCSDS_OMM_VERS = 2.0
CREATION_DATE  = 
ORIGINATOR     = 

OBJECT_NAME    = COSMO-SKYMED 1
OBJECT_ID      = 2007-023A
CENTER_NAME    = EARTH
REF_FRAME      = TEME
TIME_SYSTEM    = UTC
MEAN_ELEMENT_THEORY = SGP/SGP4

EPOCH          = 2026-03-26T04:17:24.971136
MEAN_MOTION    = 14.96651579
ECCENTRICITY   = .0000984
INCLINATION    = 97.8879
RA_OF_ASC_NODE = 276.3453
ARG_OF_PERICENTER = 92.3582
MEAN_ANOMALY   = 267.7752

EPHEMERIS_TYPE = 0
CLASSIFICATION_TYPE = U
NORAD_CAT_ID   = 31598
ELEMENT_SET_NO = 999
REV_AT_EPOCH   = 1737
BSTAR          = .24162E-3
MEAN_MOTION_DOT = .2696E-4
MEAN_MOTION_DDOT = 0

CCSDS_OMM_VERS = 2.0
CREATION_DATE  = 
ORIGINATOR     = 

OBJECT_NAME    = COSMOS 2428
OBJECT_ID      = 2007-029A
CENTER_NAME    = EARTH
REF_FRAME      = TEME
TIME_SYSTEM    = UTC
MEAN_ELEMENT_THEORY = SGP/SGP4

EPOCH          = 2026-03-26T04:07:01.292736
MEAN_MOTION    = 14.12948187
ECCENTRICITY   = .0009658
INCLINATION    = 70.9438
RA_OF_ASC_NODE = 168.7517
ARG_OF_PERICENTER = 260.1786
MEAN_ANOMALY   = 99.8245

EPHEMERIS_TYPE = 0
CLASSIFICATION_TYPE = U
NORAD_CAT_ID   = 31792
ELEMENT_SET_NO = 999
REV_AT_EPOCH   = 96642
BSTAR          = .10477E-4
MEAN_MOTION_DOT = -.28E-6
MEAN_MOTION_DDOT = 0

CCSDS_OMM_VERS = 2.0
CREATION_DATE  = 
ORIGINATOR     = 

OBJECT_NAME    = SL-16 R/B
OBJECT_ID      = 2007-029B
CENTER_NAME    = EARTH
REF_FRAME      = TEME
TIME_SYSTEM    = UTC
MEAN_ELEMENT_THEORY = SGP/SGP4

EPOCH          = 2026-03-25T15:11:39.441696
MEAN_MOTION    = 14.14842576
ECCENTRICITY   = .0002577
INCLINATION    = 70.9752
RA_OF_ASC_NODE = 138.8721
ARG_OF_PERICENTER = 277.3173
MEAN_ANOMALY   = 247.6505

EPHEMERIS_TYPE = 0
CLASSIFICATION_TYPE = U
NORAD_CAT_ID   = 31793
ELEMENT_SET_NO = 999
REV_AT_EPOCH   = 96762
BSTAR          = .10405E-3
MEAN_MOTION_DOT = .153E-5
MEAN_MOTION_DDOT = 0

CCSDS_OMM_VERS = 2.0
CREATION_DATE  = 
ORIGINATOR     = 

OBJECT_NAME    = KORONAS-FOTON
OBJECT_ID      = 2009-003A
CENTER_NAME    = EARTH
REF_FRAME      = TEME
TIME_SYSTEM    = UTC
MEAN_ELEMENT_THEORY = SGP/SGP4

EPOCH          = 2026-03-25T23:19:03.317088
MEAN_MOTION    = 15.43741967
ECCENTRICITY   = .0011804
INCLINATION    = 82.4279
RA_OF_ASC_NODE = 258.9421
ARG_OF_PERICENTER = 97.0272
MEAN_ANOMALY   = 263.2319

EPHEMERIS_TYPE = 0
CLASSIFICATION_TYPE = U
NORAD_CAT_ID   = 33504
ELEMENT_SET_NO = 999
REV_AT_EPOCH   = 94825
BSTAR          = .2764E-3
MEAN_MOTION_DOT = .12558E-3
MEAN_MOTION_DDOT = 0

CCSDS_OMM_VERS = 2.0
CREATION_DATE  = 
ORIGINATOR     = 

OBJECT_NAME    = CZ-2C R/B
OBJECT_ID      = 2011-030B
CENTER_NAME    = EARTH
REF_FRAME      = TEME
TIME_SYSTEM    = UTC
MEAN_ELEMENT_THEORY = SGP/SGP4

EPOCH          = 2026-03-25T21:24:55.570176
MEAN_MOTION    = 14.81277575
ECCENTRICITY   = .00512166
INCLINATION    = 97.8571
RA_OF_ASC_NODE = 41.8345
ARG_OF_PERICENTER = 298.5761
MEAN_ANOMALY   = 124.8643

EPHEMERIS_TYPE = 0
CLASSIFICATION_TYPE = U
NORAD_CAT_ID   = 37731
ELEMENT_SET_NO = 999
REV_AT_EPOCH   = 79249
BSTAR          = .19171771E-3
MEAN_MOTION_DOT = .1473E-4
MEAN_MOTION_DDOT = 0

CCSDS_OMM_VERS = 2.0
CREATION_DATE  = 
ORIGINATOR     = 

OBJECT_NAME    = H-2A R/B
OBJECT_ID      = 2012-025E
CENTER_NAME    = EARTH
REF_FRAME      = TEME
TIME_SYSTEM    = UTC
MEAN_ELEMENT_THEORY = SGP/SGP4

EPOCH          = 2026-03-26T04:34:56.136864
MEAN_MOTION    = 14.95280433
ECCENTRICITY   = .0042713
INCLINATION    = 98.4760
RA_OF_ASC_NODE = 53.5624
ARG_OF_PERICENTER = 258.3883
MEAN_ANOMALY   = 101.2539

EPHEMERIS_TYPE = 0
CLASSIFICATION_TYPE = U
NORAD_CAT_ID   = 38341
ELEMENT_SET_NO = 999
REV_AT_EPOCH   = 75068
BSTAR          = .32061E-3
MEAN_MOTION_DOT = .3525E-4
MEAN_MOTION_DDOT = 0

CCSDS_OMM_VERS = 2.0
CREATION_DATE  = 
ORIGINATOR     = 

OBJECT_NAME    = SHIJIAN-16 (SJ-16)
OBJECT_ID      = 2013-057A
CENTER_NAME    = EARTH
REF_FRAME      = TEME
TIME_SYSTEM    = UTC
MEAN_ELEMENT_THEORY = SGP/SGP4

EPOCH          = 2026-03-26T04:29:38.456160
MEAN_MOTION    = 14.92411420
ECCENTRICITY   = .0015257
INCLINATION    = 74.9722
RA_OF_ASC_NODE = 153.8584
ARG_OF_PERICENTER = 69.6485
MEAN_ANOMALY   = 290.6341

EPHEMERIS_TYPE = 0
CLASSIFICATION_TYPE = U
NORAD_CAT_ID   = 39358
ELEMENT_SET_NO = 999
REV_AT_EPOCH   = 67396
BSTAR          = .1332E-3
MEAN_MOTION_DOT = .1338E-4
MEAN_MOTION_DDOT = 0

CCSDS_OMM_VERS = 2.0
CREATION_DATE  = 
ORIGINATOR     = 

OBJECT_NAME    = SL-4 R/B
OBJECT_ID      = 2014-021B
CENTER_NAME    = EARTH
REF_FRAME      = TEME
TIME_SYSTEM    = UTC
MEAN_ELEMENT_THEORY = SGP/SGP4

EPOCH          = 2026-03-25T19:01:41.820096
MEAN_MOTION    = 15.39717175
ECCENTRICITY   = .00959711
INCLINATION    = 51.6053
RA_OF_ASC_NODE = 258.6863
ARG_OF_PERICENTER = 161.6166
MEAN_ANOMALY   = 198.8326

EPHEMERIS_TYPE = 0
CLASSIFICATION_TYPE = U
NORAD_CAT_ID   = 39679
ELEMENT_SET_NO = 999
REV_AT_EPOCH   = 65875
BSTAR          = .37834437E-3
MEAN_MOTION_DOT = .17461E-3
MEAN_MOTION_DDOT = 0

